STARLINK-32090          
1 59691U 24086K   26068.01197643  .00000826  00000+0  39508-4 0  9997
2 59691  42.9985  67.5931 0000568 296.4773  63.6020 15.27581318103964
KUIPER-00266            
1 67789U 26030AB  26067.91293632  .00029701  00000+0  98220-3 0  9996
2 67789  51.8807 223.5904 0022313  72.5291 287.8129 15.30874235  4964
